[{"OBJECT_NAME":"WEINA 2","OBJECT_ID":"2020-103B","EPOCH":"2026-03-09T23:41:17.753856","MEAN_MOTION":14.64853459,"ECCENTRICITY":0.00029334,"INCLINATION":98.066,"RA_OF_ASC_NODE":320.1762,"ARG_OF_PERICENTER":124.191,"MEAN_ANOMALY":235.9572,"EPHEMERIS_TYPE":0,"CLASSIFICATION_TYPE":"U","NORAD_CAT_ID":47303,"ELEMENT_SET_NO":999,"REV_AT_EPOCH":27720,"BSTAR":0.00031236828,"MEAN_MOTION_DOT":1.621e-5,"MEAN_MOTION_DDOT":0},{"OBJECT_NAME":"NOAA 16 DEB","OBJECT_ID":"2000-055TP","EPOCH":"2026-03-09T03:38:53.961216","MEAN_MOTION":14.60547221,"ECCENTRICITY":0.0016401,"INCLINATION":98.8197,"RA_OF_ASC_NODE":193.9649,"ARG_OF_PERICENTER":250.5773,"MEAN_ANOMALY":109.3653,"EPHEMERIS_TYPE":0,"CLASSIFICATION_TYPE":"U","NORAD_CAT_ID":42419,"ELEMENT_SET_NO":999,"REV_AT_EPOCH":51825,"BSTAR":0.0059942959,"MEAN_MOTION_DOT":0.00029235,"MEAN_MOTION_DDOT":0}]
